CZ-6A DEB               
1 54269U 22151L   22336.47601072  .00000208  00000+0  71733-4 0  9994
2 54269  98.7389 341.7509 0133716 228.8784 130.0800 14.41849387  2385
CZ-6A DEB               
1 54270U 22151M   22336.48878862 -.00000041  00000+0  89914-6 0  9998
2 54270  98.8238 340.9330 0083213  31.0759 329.5291 14.01403455  2305
CZ-6A DEB               
1 54271U 22151N   22336.28112811  .00010711  00000+0  58823-2 0  9997
2 54271  98.7477 340.2820 0211784 310.9324  47.3675 14.01152029  2297
CZ-6A DEB               
1 54272U 22151P   22336.24700944  .00000795  00000+0  40627-3 0  9999
2 54272  98.9277 341.8546 0029025 289.1999  70.6036 14.18350767  2613
CZ-6A DEB               
1 54273U 22151Q   22336.04995583  .00001552  00000+0  86372-3 0  9992
2 54273  98.8073 340.7514 0029798  11.8475 348.3392 14.12275861  2262
CZ-6A DEB               
1 54274U 22151R   22334.98179310  .00052735  00000+0  16731-1 0  9995
2 54274  98.8283 340.1883 0241865 285.2015  72.2537 14.24365496  2145
CZ-6A DEB               
1 54275U 22151S   22336.23515190  .00003608  00000+0  10672-2 0  9990
2 54275  98.9077 342.4257 0130489 237.4854 121.3669 14.39264766  2367
CZ-6A DEB               
1 54276U 22151T   22336.23050485  .00000274  00000+0  28220-3 0  9997
2 54276  98.7411 339.3572 0208983  25.6520 335.4824 13.74479268  2246
CZ-6A DEB               
1 54277U 22151U   22336.46993232  .00000199  00000+0  11905-3 0  9997
2 54277  98.8872 341.8123 0047615 292.1155  67.4968 14.17548755  2334
CZ-6A DEB               
1 54278U 22151V   22336.57599059  .00003054  00000+0  15823-2 0  9994
2 54278  98.6148 340.0719 0146330 301.5824  57.1132 14.10222809  2356
CZ-6A DEB               
1 54279U 22151W   22336.74036276  .00000293  00000+0  12238-3 0  9991
2 54279  98.6351 340.9397 0144003 265.4501  93.0219 14.28146297  2405
CZ-6A DEB               
1 54280U 22151X   22335.67058877  .00001223  00000+0  47512-3 0  9992
2 54280  98.6556 340.0427 0089196 251.8886 107.2566 14.29548231  2256
CZ-6A DEB               
1 54281U 22151Y   22336.24337074  .00000244  00000+0  98628-4 0  9993
2 54281  98.6449 340.6797 0103878 242.0046 117.0598 14.33611690  2347
CZ-6A DEB               
1 54282U 22151Z   22336.70623175  .00003228  00000+0  11544-2 0  9990
2 54282  98.6288 340.9395 0123376 257.3557 101.3808 14.30587919  2407
CZ-6A DEB               
1 54283U 22151AA  22336.25571483  .00000118  00000+0  93986-4 0  9992
2 54283  98.7892 340.7019 0054171  37.9218 322.5748 14.07728692  2301
CZ-6A DEB               
1 54284U 22151AB  22335.68234058  .00001281  00000+0  76851-3 0  9996
2 54284  98.8180 340.3209 0049914  28.0610 332.3235 14.08095472  2221
CZ-6A DEB               
1 54285U 22151AC  22336.48210642  .00001282  00000+0  84438-3 0  9990
2 54285  98.8150 340.8909 0082555  35.2218 325.4366 14.01893345  2320
CZ-6A DEB               
1 54286U 22151AD  22336.28238457  .00003651  00000+0  90639-3 0  9995
2 54286  98.6977 341.4385 0150444 226.1863 132.6808 14.45866099  2379
CZ-6A DEB               
1 54287U 22151AE  22335.97877514  .00013749  00000+0  26531-2 0  9992
2 54287  98.7041 341.4018 0185924 226.1558 132.4144 14.53088978  2336
CZ-6A DEB               
1 54288U 22151AF  22336.70857840  .00001891  00000+0  42652-3 0  9993
2 54288  98.7850 342.5482 0161177 216.8478 142.1553 14.49943352  2437
CZ-6A DEB               
1 54289U 22151AG  22336.76286020  .00000020  00000+0  37180-4 0  9990
2 54289  98.8066 341.2760 0055750  31.7708 328.6805 14.07068461  2379
CZ-6A DEB               
1 54290U 22151AH  22336.23307982  .00000318  00000+0  13088-3 0  9995
2 54290  98.5709 340.0946 0127602 261.5620  97.1081 14.29349668  2332
CZ-6A DEB               
1 54291U 22151AJ  22336.29782841  .00000312  00000+0  21486-3 0  9998
2 54291  98.8050 340.7399 0081466 340.5963  19.2109 14.04774360  2306
CZ-6A DEB               
1 54292U 22151AK  22336.28951731  .00000067  00000+0  66534-4 0  9995
2 54292  98.8256 340.8708 0063046  29.3329 331.1355 14.05353653  2300
CZ-6A DEB               
1 54293U 22151AL  22336.75908420  .00000316  00000+0  16243-3 0  9993
2 54293  98.8160 341.8239 0040144 261.5673  98.0953 14.21958462  2390
CZ-6A DEB               
1 54294U 22151AM  22336.44375788  .00002976  00000+0  67348-3 0  9991
2 54294  98.8529 342.6547 0162674 222.2315 136.6255 14.49161484  2395
CZ-6A DEB               
1 54295U 22151AN  22336.81402711  .00002444  00000+0  11468-2 0  9991
2 54295  98.7430 341.1637 0174471 293.3220  64.9678 14.13348156  2398
CZ-6A DEB               
1 54296U 22151AP  22336.28581744  .00001048  00000+0  45929-3 0  9996
2 54296  98.8684 341.7820 0032783 196.7044 163.3058 14.25594347  2338
CZ-6A DEB               
1 54297U 22151AQ  22336.48088622  .00000820  00000+0  39132-3 0  9992
2 54297  98.7536 341.1675 0027488 139.1230 221.2015 14.21740884  2365
CZ-6A DEB               
1 54298U 22151AR  22336.28488989  .00000158  00000+0  12091-3 0  9990
2 54298  98.7652 340.5218 0062978  34.8080 325.7183 14.05682705  2318
CZ-6A DEB               
1 54299U 22151AS  22336.26827028 -.00000077  00000+0 -20198-4 0  9990
2 54299  98.8129 340.8245 0055385  25.0785 335.3056 14.06844153  2280
CZ-6A DEB               
1 54300U 22151AT  22336.47936929  .00000673  00000+0  42203-3 0  9997
2 54300  98.9039 341.5714 0060939 350.6383   9.3645 14.07013745  2317
CZ-6A DEB               
1 54301U 22151AU  22336.76060048  .00000357  00000+0  23564-3 0  9998
2 54301  98.9028 341.8494 0056828 357.0871   2.9959 14.07227231  2357
CZ-6A DEB               
1 54302U 22151AV  22336.26163654  .00001896  00000+0  47040-3 0  9995
2 54302  98.9636 343.0653 0141222 176.9820 183.2255 14.47318238  2364
CZ-6A DEB               
1 54303U 22151AW  22336.24094369  .00000123  00000+0  95443-4 0  9993
2 54303  98.8341 340.9840 0047662  34.0337 326.3875 14.08764483  2284
CZ-6A DEB               
1 54304U 22151AX  22336.24312740  .00000816  00000+0  49459-3 0  9994
2 54304  98.8354 340.9881 0046792  21.5751 338.7377 14.08624638  2289
CZ-6A DEB               
1 54305U 22151AY  22336.74719075  .00000217  00000+0  11487-3 0  9997
2 54305  98.8200 341.8644 0056275 126.3675 234.2714 14.22780244  2392
CZ-6A DEB               
1 54306U 22151AZ  22336.29626242  .00000276  00000+0  18023-3 0  9999
2 54306  98.8177 340.9748 0041173  24.5340 335.7778 14.09871901  2292
CZ-6A DEB               
1 54307U 22151BA  22336.53075433  .00004149  00000+0  13894-2 0  9990
2 54307  98.6184 340.7878 0131226 253.2823 105.3925 14.33113461  2367
CZ-6A DEB               
1 54308U 22151BB  22336.73118502  .00004102  00000+0  13727-2 0  9992
2 54308  98.6982 341.4881 0122790 248.8903 109.9119 14.33741994  2397
CZ-6A DEB               
1 54309U 22151BC  22336.28835671  .00000291  00000+0  18685-3 0  9990
2 54309  98.8171 340.9834 0038232  23.1274 337.1607 14.10428847  2294
CZ-6A DEB               
1 54310U 22151BD  22336.07540370  .00007949  00000+0  22623-2 0  9991
2 54310  98.6128 340.5503 0127954 231.5628 127.4020 14.40859677  2339
CZ-6A DEB               
1 54311U 22151BE  22336.47714226  .00004017  00000+0  12505-2 0  9990
2 54311  98.6981 341.3384 0127917 242.3204 116.4953 14.36905988  2360
CZ-6A DEB               
1 54312U 22151BF  22336.29379145  .00001457  00000+0  70402-3 0  9994
2 54312  98.9688 342.2012 0024156 270.9953  88.8455 14.20044107  2320
CZ-6A DEB               
1 54313U 22151BG  22336.46625019  .00005587  00000+0  17113-2 0  9995
2 54313  98.6949 341.3336 0125057 238.8583 120.0289 14.37707049  2368
CZ-6A DEB               
1 54314U 22151BH  22336.45960024  .00007040  00000+0  18307-2 0  9995
2 54314  98.6189 341.0526 0152932 235.3811 123.2877 14.43168145  2375
CZ-6A DEB               
1 54315U 22151BJ  22336.08973255  .00000271  00000+0  17831-3 0  9996
2 54315  98.8328 340.8483 0045300  37.5185 322.9132 14.09417772  2263
CZ-6A DEB               
1 54316U 22151BK  22336.44286834  .00000518  00000+0  31820-3 0  9995
2 54316  98.7969 340.9873 0042394  20.7800 339.5082 14.09551254  2325
CZ-6A DEB               
1 54317U 22151BL  22335.48522155  .00007469  00000+0  14219-2 0  9992
2 54317  98.7114 340.9589 0186274 224.5389 134.0707 14.53831324  2256
CZ-6A DEB               
1 54318U 22151BM  22336.48017372  .00000610  00000+0  38574-3 0  9996
2 54318  98.8160 341.0511 0055391  27.4245 332.9828 14.06959296  2319
CZ-6A DEB               
1 54319U 22151BN  22335.69111664  .00013753  00000+0  31693-2 0  9994
2 54319  98.6589 340.5407 0201487 250.7295 107.2003 14.43695294  2275
CZ-6A DEB               
1 54320U 22151BP  22336.27810076  .00000269  00000+0  22896-3 0  9998
2 54320  98.8421 340.5044 0136582   0.2742 359.8470 13.91181279  2277
CZ-6A DEB               
1 54321U 22151BQ  22336.27148879  .00000941  00000+0  30685-3 0  9996
2 54321  98.6880 341.0638 0127798 243.1795 115.6274 14.36607341  2335
CZ-6A DEB               
1 54322U 22151BR  22336.83908903  .00005920  00000+0  13242-2 0  9992
2 54322  98.7332 342.2246 0197758 242.4783 115.6189 14.45706683  2445
CZ-6A DEB               
1 54323U 22151BS  22336.27140581  .00000314  00000+0  21214-3 0  9992
2 54323  98.8081 340.7927 0056087  13.3693 346.8946 14.06631923  2306
CZ-6A DEB               
1 54324U 22151BT  22335.67405764  .00062419  00000+0  17677-2 0  9994
2 54324  98.6608 342.1241 0351417 213.0952 144.7835 14.92131884  2349
CZ-6A DEB               
1 54325U 22151BU  22336.48083671  .00000193  00000+0  12854-3 0  9998
2 54325  98.7846 341.0262 0034254  40.9120 319.4613 14.11845634  2337
CZ-6A DEB               
1 54326U 22151BV  22336.09206093  .00045441  00000+0  44503-2 0  9991
2 54326  99.0846 344.2516 0289129 237.4565 119.8406 14.65680140  2361
CZ-6A DEB               
1 54327U 22151BW  22336.25296881  .00000455  00000+0  28957-3 0  9996
2 54327  98.7886 340.7021 0051074  29.7085 330.6968 14.07928164  2283
